NORAD_CAT_ID,OBJECT_NAME,OBJECT_TYPE,EPOCH,MEAN_MOTION,ECCENTRICITY,INCLINATION,RA_OF_ASC_NODE,ARG_OF_PERICENTER,MEAN_ANOMALY,BSTAR,MEAN_MOTION_DOT,MEAN_MOTION_DDOT,TLE_LINE0,TLE_LINE1,TLE_LINE2,SEMIMAJOR_AXIS,PERIOD,APOGEE,PERIGEE,DECAYED
51976.0,STARLINK-3663,PAYLOAD,2022-10-04 16:21:33,15.08848437,0.0002206,53.216,259.6149,45.9663,314.1511,0.00024937,3.684e-05,0.0,0 STARLINK-3663,1 51976U 22025W   22277.68163302  .00003684  00000-0  24937-3 0  9997,2 51976  53.2160 259.6149 0002206  45.9663 314.1511 15.08848437 32050,6917.855,95.437,541.246,538.194,0.0
51976.0,STARLINK-3663,PAYLOAD,2022-10-05 05:04:38,15.08841686,0.0001913,53.2171,257.2341,54.9375,305.1797,-4.3374e-05,-9.78e-06,0.0,0 STARLINK-3663,1 51976U 22025W   22278.21155441 -.00000978  00000-0 -43374-4 0  9994,2 51976  53.2171 257.2341 0001913  54.9375 305.1797 15.08841686 33241,6917.875,95.437,541.064,538.4169999999998,0.0
51976.0,STARLINK-3663,PAYLOAD,2022-10-05 08:15:24,15.08840954,0.0001943,53.2173,256.6397,56.8023,303.3155,-3.7063e-05,-8.78e-06,0.0,0 STARLINK-3663,1 51976U 22025W   22278.34403483 -.00000878  00000-0 -37063-4 0  9997,2 51976  53.2173 256.6397 0001943  56.8023 303.3155 15.08840954 32155,6917.877,95.437,541.087,538.398,0.0
51976.0,STARLINK-3663,PAYLOAD,2022-10-05 16:12:20,15.08840697,0.0001974,53.2167,255.1528,50.7601,309.3567,-3.0799e-05,-7.78e-06,0.0,0 STARLINK-3663,1 51976U 22025W   22278.67523470 -.00000778  00000-0 -30799-4 0  9990,2 51976  53.2167 255.1528 0001974  50.7601 309.3567 15.08840697 32200,6917.878000000002,95.438,541.109,538.378,0.0
51976.0,STARLINK-3663,PAYLOAD,2022-10-06 08:06:11,15.08838573,0.000174,53.2161,252.1807,47.0458,313.068,-9.6323e-05,-1.821e-05,0.0,0 STARLINK-3663,1 51976U 22025W   22279.33763603 -.00001821  00000-0 -96323-4 0  9993,2 51976  53.2161 252.1807 0001740  47.0458 313.0680 15.08838573 33413,6917.885,95.438,540.953,538.5459999999998,0.0
51976.0,STARLINK-3663,PAYLOAD,2022-10-07 06:21:35,15.08846038,0.0001986999999999,53.2164,248.0172,44.794,315.3213,0.00026001,3.853e-05,0.0,0 STARLINK-3663,1 51976U 22025W   22280.26499547  .00003853  00000-0  26001-3 0  9990,2 51976  53.2164 248.0172 0001987  44.7940 315.3213 15.08846038 33555,6917.861999999999,95.437,541.102,538.352,0.0
51976.0,STARLINK-3663,PAYLOAD,2022-10-07 20:40:03,15.08842468,0.0001952,53.216,245.3403,48.2227,311.8932,0.00014677,2.049e-05,0.0,0 STARLINK-3663,1 51976U 22025W   22280.86115665  .00002049  00000-0  14677-3 0  9994,2 51976  53.2160 245.3403 0001952  48.2227 311.8932 15.08842468 32536,6917.873000000001,95.437,541.0880000000002,538.387,0.0
51976.0,STARLINK-3663,PAYLOAD,2022-10-08 04:36:59,15.08835248,0.0001851,53.2166,243.8531,48.8576,311.2575,-2.5344e-05,-6.91e-06,0.0,0 STARLINK-3663,1 51976U 22025W   22281.19235920 -.00000691  00000-0 -25344-4 0  9995,2 51976  53.2166 243.8531 0001851  48.8576 311.2575 15.08835248 33691,6917.895,95.438,541.04,538.479,0.0
51976.0,STARLINK-3663,PAYLOAD,2022-10-08 06:12:22,15.08834669,0.0001885,53.2168,243.5558,50.7493,309.3667,-4.4446e-05,-9.95e-06,0.0,0 STARLINK-3663,1 51976U 22025W   22281.25859941 -.00000995  00000-0 -44446-4 0  9998,2 51976  53.2168 243.5558 0001885  50.7493 309.3667 15.08834669 32590,6917.897,95.438,541.066,538.4580000000002,0.0
51976.0,STARLINK-3663,PAYLOAD,2022-10-08 14:09:18,15.08837098,0.000182,53.2165,242.0701,48.9254,311.1895,6.8125e-05,7.96e-06,0.0,0 STARLINK-3663,1 51976U 22025W   22281.58979946  .00000796  00000-0  68125-4 0  9999,2 51976  53.2165 242.0701 0001820  48.9254 311.1895 15.08837098 32643,6917.889,95.438,541.013,538.495,0.0
51976.0,STARLINK-3663,PAYLOAD,2022-10-09 04:27:47,15.08831679,0.0001837,53.2172,239.3942,50.0277,310.0877,-1.0507e-05,-4.55e-06,0.0,0 STARLINK-3663,1 51976U 22025W   22282.18597048 -.00000455  00000-0 -10507-4 0  9990,2 51976  53.2172 239.3942 0001837  50.0277 310.0877 15.08831679 33844,6917.906,95.438,541.0419999999998,538.5,0.0
51976.0,STARLINK-3663,PAYLOAD,2022-10-09 14:00:06,15.08838573,0.0001776999999999,53.2166,237.6101,53.9535,306.1622,0.00026223,3.888e-05,0.0,0 STARLINK-3663,1 51976U 22025W   22282.58340370  .00003888  00000-0  26223-3 0  9990,2 51976  53.2166 237.6101 0001777  53.9535 306.1622 15.08838573 33908,6917.885,95.438,540.979,538.52,0.0
51976.0,STARLINK-3663,PAYLOAD,2022-10-09 20:21:38,15.08841469,0.0001786999999999,53.2166,236.4207,50.5052,309.6098,0.00012781,1.747e-05,0.0,0 STARLINK-3663,1 51976U 22025W   22282.84836184  .00001747  00000-0  12781-3 0  9998,2 51976  53.2166 236.4207 0001787  50.5052 309.6098 15.08841469 32834,6917.876,95.437,540.977,538.505,0.0
51976.0,STARLINK-3663,PAYLOAD,2022-10-10 05:53:57,15.08839376,0.000175,53.2169,234.6353,54.793,305.3226,0.00010998,1.463e-05,0.0,0 STARLINK-3663,1 51976U 22025W   22283.24580263  .00001463  00000-0  10998-3 0  9990,2 51976  53.2169 234.6353 0001750  54.7930 305.3226 15.08839376 32896,6917.882,95.438,540.9580000000002,538.5369999999998,0.0
51976.0,STARLINK-3663,PAYLOAD,2022-10-10 20:12:25,15.0884456,0.0001999,53.2163,231.9609,53.3796,306.7379,0.00017667,2.525e-05,0.0,0 STARLINK-3663,1 51976U 22025W   22283.84196109  .00002525  00000-0  17667-3 0  9998,2 51976  53.2163 231.9609 0001999  53.3796 306.7379 15.08844560 32989,6917.866,95.437,541.114,538.349,0.0
51976.0,STARLINK-3663,PAYLOAD,2022-10-11 04:09:21,15.08826268,0.0001704,53.2168,230.472,58.0695,302.0462,-2.9965e-05,-7.65e-06,0.0,0 STARLINK-3663,1 51976U 22025W   22284.17317052 -.00000765  00000-0 -29965-4 0  9998,2 51976  53.2168 230.4720 0001704  58.0695 302.0462 15.08826268 34143,6917.922,95.438,540.966,538.609,0.0
51976.0,STARLINK-3663,PAYLOAD,2022-10-11 05:44:45,15.08827082,0.0001771,53.2168,230.1756,53.6414,306.4741,-1.1169e-05,-4.66e-06,0.0,0 STARLINK-3663,1 51976U 22025W   22284.23941124 -.00000466  00000-0 -11169-4 0  9993,2 51976  53.2168 230.1756 0001771  53.6414 306.4741 15.08827082 33044,6917.92,95.438,541.01,538.56,0.0
51976.0,STARLINK-3663,PAYLOAD,2022-10-11 20:03:13,15.08820277,0.0001705,53.2166,227.499,57.8193,302.2964,-0.00023452,-4.016e-05,0.0,0 STARLINK-3663,1 51976U 22025W   22284.83557648 -.00004016  00000-0 -23452-3 0  9995,2 51976  53.2166 227.4990 0001705  57.8193 302.2964 15.08820277 33138,6917.941,95.439,540.985,538.626,0.0
51976.0,STARLINK-3663,PAYLOAD,2022-10-12 13:32:28,15.08831291,0.0001635,53.2168,224.228,55.1974,304.9172,7.2112e-05,8.599999999999999e-06,0.0,0 STARLINK-3663,1 51976U 22025W   22285.56422218  .00000860  00000-0  72112-4 0  9999,2 51976  53.2168 224.2280 0001635  55.1974 304.9172 15.08831291 33247,6917.906999999997,95.438,540.903,538.641,0.0
51976.0,STARLINK-3663,PAYLOAD,2022-10-12 19:54:01,15.08837049,0.0001591,53.2168,223.0378,52.6281,307.4856,0.00025158,3.718e-05,0.0,0 STARLINK-3663,1 51976U 22025W   22285.82918090  .00003718  00000-0  25158-3 0  9998,2 51976  53.2168 223.0378 0001591  52.6281 307.4856 15.08837049 34397,6917.889,95.438,540.855,538.654,0.0
51976.0,STARLINK-3663,PAYLOAD,2022-10-13 05:26:20,15.08838166,0.0001712,53.2169,221.2548,53.3484,306.7666,0.00037926,5.753e-05,0.0,0 STARLINK-3663,1 51976U 22025W   22286.22662453  .00005753  00000-0  37926-3 0  9999,2 51976  53.2169 221.2548 0001712  53.3484 306.7666 15.08838166 33341,6917.886,95.438,540.935,538.567,0.0
51976.0,STARLINK-3663,PAYLOAD,2022-10-13 19:44:48,15.08857524,0.0001643,53.2166,218.5791,52.4699,307.6442,0.00062131,9.619e-05,0.0,0 STARLINK-3663,1 51976U 22025W   22286.82277827  .00009619  00000-0  62131-3 0  9993,2 51976  53.2166 218.5791 0001643  52.4699 307.6442 15.08857524 33439,6917.8269999999975,95.436,540.828,538.555,0.0
51976.0,STARLINK-3663,PAYLOAD,2022-10-14 05:17:06,15.08873048,0.0001695,53.2166,216.7948,51.4275,308.6869,0.00098591,0.00015452,0.0,0 STARLINK-3663,1 51976U 22025W   22287.22021083  .00015452  00000-0  98591-3 0  9990,2 51976  53.2166 216.7948 0001695  51.4275 308.6869 15.08873048 34602,6917.779,95.435,540.817,538.472,0.0
51976.0,STARLINK-3663,PAYLOAD,2022-10-14 18:00:11,15.08852857,0.0001346,53.2167,214.4161,59.6601,300.4524,0.0013288,0.00020931,0.0,0 STARLINK-3663,1 51976U 22025W   22287.75013494  .00020931  00000-0  13288-2 0  9992,2 51976  53.2167 214.4161 0001346  59.6601 300.4524 15.08852857 34682,6917.840999999999,95.437,540.637,538.775,0.0
51976.0,STARLINK-3663,PAYLOAD,2022-10-15 00:21:44,15.08836137,0.0001514,53.2166,213.227,53.0672,307.0458,0.00090984,0.0001422,0.0,0 STARLINK-3663,1 51976U 22025W   22288.01509773  .00014220  00000-0  90984-3 0  9995,2 51976  53.2166 213.2270 0001514  53.0672 307.0458 15.08836137 34729,6917.892,95.438,540.805,538.71,0.0
51976.0,STARLINK-3663,PAYLOAD,2022-10-15 05:07:53,15.08851599,0.000151,53.2166,212.3342,59.9743,300.1398,0.00085209,0.00013303,0.0,0 STARLINK-3663,1 51976U 22025W   22288.21381550  .00013303  00000-0  85209-3 0  9993,2 51976  53.2166 212.3342 0001510  59.9743 300.1398 15.08851599 33645,6917.845,95.437,540.755,538.665,0.0
51976.0,STARLINK-3663,PAYLOAD,2022-10-15 19:26:21,15.08849993,0.0001615,53.2161,209.6579,55.5788,304.5356,0.00067148,0.00010418,0.0,0 STARLINK-3663,1 51976U 22025W   22288.80997648  .00010418  00000-0  67148-3 0  9995,2 51976  53.2161 209.6579 0001615  55.5788 304.5356 15.08849993 33735,6917.85,95.437,540.832,538.5980000000002,0.0
51976.0,STARLINK-3663,PAYLOAD,2022-10-15 22:37:08,15.08847156,0.0001647,53.2165,209.0634,52.9658,307.1485,0.00037277,5.651e-05,0.0,0 STARLINK-3663,1 51976U 22025W   22288.94245602  .00005651  00000-0  37277-3 0  9999,2 51976  53.2165 209.0634 0001647  52.9658 307.1485 15.08847156 34863,6917.859,95.437,540.863,538.5840000000002,0.0
51976.0,STARLINK-3663,PAYLOAD,2022-10-16 09:44:50,15.08842614,0.000161,53.2164,206.9806,56.0255,304.089,0.00013445,1.853e-05,0.0,0 STARLINK-3663,1 51976U 22025W   22289.40613558  .00001853  00000-0  13445-3 0  9991,2 51976  53.2164 206.9806 0001610  56.0255 304.0890 15.08842614 33822,6917.871999999999,95.437,540.851,538.624,0.0
